{"type": "FeatureCollection", "features": [{"type": "Feature", "properties": {"norad_id": 26766, "name": "INTELSAT 10 (IS-10)", "group": "intelsat", "lat": -8.05806833028223, "lon": -7.152168914035077, "alt_km": 36110.94638431568, "timestamp": "2025-12-25T11:37:44.089109+00:00", "meta": {"OBJECT_NAME": "INTELSAT 10 (IS-10)", "OBJECT_ID": "2001-019A", "EPOCH": "2025-12-24T19:52:43.092192", "MEAN_MOTION": 0.9907234, "ECCENTRICITY": 0.00079377, "INCLINATION": 8.6564, "RA_OF_ASC_NODE": 61.0345, "ARG_OF_PERICENTER": 229.6069, "MEAN_ANOMALY": 187.8365, "EPHEMERIS_TYPE": 0, "CLASSIFICATION_TYPE": "U", "NORAD_CAT_ID": 26766, "ELEMENT_SET_NO": 999, "REV_AT_EPOCH": 4385, "BSTAR": 0, "MEAN_MOTION_DOT": 1.5e-07, "MEAN_MOTION_DDOT": 0}, "tle": {"line1": "1 26766U 01019A   25358.82827653  .00000015  00000+0  00000+0 0  9996", "line2": "2 26766   8.6564  61.0345 0007937 229.6069 187.8365  0.99072340 43859"}}, "geometry": {"type": "Point", "coordinates": [-7.152168914035077, -8.05806833028223]}}, {"type": "Feature", "properties": {"norad_id": 26900, "name": "INTELSAT 902 (IS-902)", "group": "intelsat", "lat": 3.2880099577269233, "lon": -141.4305829831519, "alt_km": 35773.62761794181, "timestamp": "2025-12-25T11:37:44.089133+00:00", "meta": {"OBJECT_NAME": "INTELSAT 902 (IS-902)", "OBJECT_ID": "2001-039A", "EPOCH": "2025-12-15T13:09:02.081664", "MEAN_MOTION": 1.0027087, "ECCENTRICITY": 0.00045028, "INCLINATION": 5.6536, "RA_OF_ASC_NODE": 74.0372, "ARG_OF_PERICENTER": 189.6359, "MEAN_ANOMALY": 327.9329, "EPHEMERIS_TYPE": 0, "CLASSIFICATION_TYPE": "U", "NORAD_CAT_ID": 26900, "ELEMENT_SET_NO": 999, "REV_AT_EPOCH": 8885, "BSTAR": 0, "MEAN_MOTION_DOT": -2.65e-06, "MEAN_MOTION_DDOT": 0}, "tle": {"line1": "1 26900U 01039A   25349.54794076 -.00000265  00000+0  00000+0 0  9997", "line2": "2 26900   5.6536  74.0372 0004502 189.6359 327.9329  1.00270870 88858"}}, "geometry": {"type": "Point", "coordinates": [-141.4305829831519, 3.2880099577269233]}}, {"type": "Feature", "properties": {"norad_id": 27380, "name": "INTELSAT 904 (IS-904)", "group": "intelsat", "lat": 1.5689546607645035, "lon": -122.74154350793883, "alt_km": 35784.21787596668, "timestamp": "2025-12-25T11:37:44.089150+00:00", "meta": {"OBJECT_NAME": "INTELSAT 904 (IS-904)", "OBJECT_ID": "2002-007A", "EPOCH": "2025-12-24T23:13:20.404128", "MEAN_MOTION": 1.00272977, "ECCENTRICITY": 0.0001971, "INCLINATION": 6.4832, "RA_OF_ASC_NODE": 71.2913, "ARG_OF_PERICENTER": 246.5743, "MEAN_ANOMALY": 92.7188, "EPHEMERIS_TYPE": 0, "CLASSIFICATION_TYPE": "U", "NORAD_CAT_ID": 27380, "ELEMENT_SET_NO": 999, "REV_AT_EPOCH": 5001, "BSTAR": 0, "MEAN_MOTION_DOT": -2.07e-06, "MEAN_MOTION_DDOT": 0}, "tle": {"line1": "1 27380U 02007A   25358.96759727 -.00000207  00000+0  00000+0 0  9992", "line2": "2 27380   6.4832  71.2913 0001971 246.5743  92.7188  1.00272977 50013"}}, "geometry": {"type": "Point", "coordinates": [-122.74154350793883, 1.5689546607645035]}}, {"type": "Feature", "properties": {"norad_id": 27426, "name": "DIRECTV 5 (TEMPO 1)", "group": "intelsat", "lat": 4.392079816504309, "lon": 158.49781901534217, "alt_km": 35792.9948960662, "timestamp": "2025-12-25T11:37:44.089163+00:00", "meta": {"OBJECT_NAME": "DIRECTV 5 (TEMPO 1)", "OBJECT_ID": "2002-023A", "EPOCH": "2025-12-24T10:03:10.210752", "MEAN_MOTION": 1.00271626, "ECCENTRICITY": 0.00033052, "INCLINATION": 4.4301, "RA_OF_ASC_NODE": 77.5162, "ARG_OF_PERICENTER": 203.2321, "MEAN_ANOMALY": 213.12, "EPHEMERIS_TYPE": 0, "CLASSIFICATION_TYPE": "U", "NORAD_CAT_ID": 27426, "ELEMENT_SET_NO": 999, "REV_AT_EPOCH": 8637, "BSTAR": 0, "MEAN_MOTION_DOT": -3.8e-07, "MEAN_MOTION_DDOT": 0}, "tle": {"line1": "1 27426U 02023A   25358.41886818 -.00000038  00000+0  00000+0 0  9995", "line2": "2 27426   4.4301  77.5162 0003305 203.2321 213.1200  1.00271626 86375"}}, "geometry": {"type": "Point", "coordinates": [158.49781901534217, 4.392079816504309]}}, {"type": "Feature", "properties": {"norad_id": 27438, "name": "INTELSAT 905 (IS-905)", "group": "intelsat", "lat": 5.461198732124022, "lon": 131.3218748317321, "alt_km": 35794.499462774926, "timestamp": "2025-12-25T11:37:44.089175+00:00", "meta": {"OBJECT_NAME": "INTELSAT 905 (IS-905)", "OBJECT_ID": "2002-027A", "EPOCH": "2025-12-23T05:41:27.377952", "MEAN_MOTION": 1.00273243, "ECCENTRICITY": 0.00027491, "INCLINATION": 6.3102, "RA_OF_ASC_NODE": 71.9349, "ARG_OF_PERICENTER": 206.5226, "MEAN_ANOMALY": 121.7385, "EPHEMERIS_TYPE": 0, "CLASSIFICATION_TYPE": "U", "NORAD_CAT_ID": 27438, "ELEMENT_SET_NO": 999, "REV_AT_EPOCH": 4959, "BSTAR": 0, "MEAN_MOTION_DOT": 1.12e-06, "MEAN_MOTION_DDOT": 0}, "tle": {"line1": "1 27438U 02027A   25357.23712243  .00000112  00000+0  00000+0 0  9993", "line2": "2 27438   6.3102  71.9349 0002749 206.5226 121.7385  1.00273243 49592"}}, "geometry": {"type": "Point", "coordinates": [131.3218748317321, 5.461198732124022]}}, {"type": "Feature", "properties": {"norad_id": 27445, "name": "GALAXY 3C (G-3C)", "group": "intelsat", "lat": 3.2962049031795426, "lon": 173.8260886659077, "alt_km": 35781.316012996176, "timestamp": "2025-12-25T11:37:44.089188+00:00", "meta": {"OBJECT_NAME": "GALAXY 3C (G-3C)", "OBJECT_ID": "2002-030A", "EPOCH": "2025-12-25T01:46:06.549024", "MEAN_MOTION": 1.00271232, "ECCENTRICITY": 0.000108, "INCLINATION": 3.2924, "RA_OF_ASC_NODE": 80.3778, "ARG_OF_PERICENTER": 87.2534, "MEAN_ANOMALY": 217.8805, "EPHEMERIS_TYPE": 0, "CLASSIFICATION_TYPE": "U", "NORAD_CAT_ID": 27445, "ELEMENT_SET_NO": 999, "REV_AT_EPOCH": 4474, "BSTAR": 0, "MEAN_MOTION_DOT": -1.32e-06, "MEAN_MOTION_DDOT": 0}, "tle": {"line1": "1 27445U 02030A   25359.07368691 -.00000132  00000+0  00000+0 0  9996", "line2": "2 27445   3.2924  80.3778 0001080  87.2534 217.8805  1.00271232 44743"}}, "geometry": {"type": "Point", "coordinates": [173.8260886659077, 3.2962049031795426]}}, {"type": "Feature", "properties": {"norad_id": 27513, "name": "INTELSAT 906 (IS-906)", "group": "intelsat", "lat": -5.256041781199677, "lon": -27.185878843325774, "alt_km": 35772.552886541846, "timestamp": "2025-12-25T11:37:44.089200+00:00", "meta": {"OBJECT_NAME": "INTELSAT 906 (IS-906)", "OBJECT_ID": "2002-041A", "EPOCH": "2025-12-24T20:15:07.471872", "MEAN_MOTION": 1.0027071, "ECCENTRICITY": 0.0006188, "INCLINATION": 5.3608, "RA_OF_ASC_NODE": 75.0877, "ARG_OF_PERICENTER": 201.2987, "MEAN_ANOMALY": 185.1407, "EPHEMERIS_TYPE": 0, "CLASSIFICATION_TYPE": "U", "NORAD_CAT_ID": 27513, "ELEMENT_SET_NO": 999, "REV_AT_EPOCH": 8528, "BSTAR": 0, "MEAN_MOTION_DOT": 3.2e-07, "MEAN_MOTION_DDOT": 0}, "tle": {"line1": "1 27513U 02041A   25358.84383648  .00000032  00000+0  00000+0 0  9995", "line2": "2 27513   5.3608  75.0877 0006188 201.2987 185.1407  1.00270710 85285"}}, "geometry": {"type": "Point", "coordinates": [-27.185878843325774, -5.256041781199677]}}, {"type": "Feature", "properties": {"norad_id": 27954, "name": "GALAXY 13 (HORIZONS-1)", "group": "intelsat", "lat": 0.5381141721865534, "lon": 118.62539426514, "alt_km": 35794.68307804139, "timestamp": "2025-12-25T11:37:44.089212+00:00", "meta": {"OBJECT_NAME": "GALAXY 13 (HORIZONS-1)", "OBJECT_ID": "2003-044A", "EPOCH": "2025-12-25T02:04:56.469216", "MEAN_MOTION": 1.00271862, "ECCENTRICITY": 0.0002319, "INCLINATION": 0.9687, "RA_OF_ASC_NODE": 86.309, "ARG_OF_PERICENTER": 185.1485, "MEAN_ANOMALY": 63.5991, "EPHEMERIS_TYPE": 0, "CLASSIFICATION_TYPE": "U", "NORAD_CAT_ID": 27954, "ELEMENT_SET_NO": 999, "REV_AT_EPOCH": 4482, "BSTAR": 0, "MEAN_MOTION_DOT": 1.54e-06, "MEAN_MOTION_DDOT": 0}, "tle": {"line1": "1 27954U 03044A   25359.08676469  .00000154  00000+0  00000+0 0  9996", "line2": "2 27954   0.9687  86.3090 0002319 185.1485  63.5991  1.00271862 44820"}}, "geometry": {"type": "Point", "coordinates": [118.62539426514, 0.5381141721865534]}}, {"type": "Feature", "properties": {"norad_id": 28358, "name": "INTELSAT 10-02", "group": "intelsat", "lat": -0.02919049442531255, "lon": -92.28831007617472, "alt_km": 35782.01626510696, "timestamp": "2025-12-25T11:37:44.089224+00:00", "meta": {"OBJECT_NAME": "INTELSAT 10-02", "OBJECT_ID": "2004-022A", "EPOCH": "2025-12-24T21:39:14.417280", "MEAN_MOTION": 1.00272147, "ECCENTRICITY": 0.0001127, "INCLINATION": 0.0167, "RA_OF_ASC_NODE": 43.3909, "ARG_OF_PERICENTER": 258.5926, "MEAN_ANOMALY": 115.5436, "EPHEMERIS_TYPE": 0, "CLASSIFICATION_TYPE": "U", "NORAD_CAT_ID": 28358, "ELEMENT_SET_NO": 999, "REV_AT_EPOCH": 7880, "BSTAR": 0, "MEAN_MOTION_DOT": 1.1e-07, "MEAN_MOTION_DDOT": 0}, "tle": {"line1": "1 28358U 04022A   25358.90225020  .00000011  00000+0  00000+0 0  9997", "line2": "2 28358   0.0167  43.3909 0001127 258.5926 115.5436  1.00272147 78800"}}, "geometry": {"type": "Point", "coordinates": [-92.28831007617472, -0.02919049442531255]}}, {"type": "Feature", "properties": {"norad_id": 28626, "name": "XM-3 (RHYTHM)", "group": "intelsat", "lat": -0.1930840530536535, "lon": -37.64008148670505, "alt_km": 36153.02205383709, "timestamp": "2025-12-25T11:37:44.089236+00:00", "meta": {"OBJECT_NAME": "XM-3 (RHYTHM)", "OBJECT_ID": "2005-008A", "EPOCH": "2025-12-25T01:46:38.581824", "MEAN_MOTION": 0.98950163, "ECCENTRICITY": 0.0002171, "INCLINATION": 0.2045, "RA_OF_ASC_NODE": 82.2268, "ARG_OF_PERICENTER": 273.7085, "MEAN_ANOMALY": 180.2205, "EPHEMERIS_TYPE": 0, "CLASSIFICATION_TYPE": "U", "NORAD_CAT_ID": 28626, "ELEMENT_SET_NO": 999, "REV_AT_EPOCH": 4087, "BSTAR": 0, "MEAN_MOTION_DOT": 9.5e-07, "MEAN_MOTION_DDOT": 0}, "tle": {"line1": "1 28626U 05008A   25359.07405766  .00000095  00000+0  00000+0 0  9998", "line2": "2 28626   0.2045  82.2268 0002171 273.7085 180.2205  0.98950163 40876"}}, "geometry": {"type": "Point", "coordinates": [-37.64008148670505, -0.1930840530536535]}}]}